0 RADUGA 32
1 23448U 94087A   13281.82533611 -.00000150  00000-0  10000-3 0  6722
2 23448 013.1875 034.0930 0008566 133.7671 226.3019 01.00279276 86472
0 RADUGA 32
1 23448U 94087A   13282.82254244  .00000000  00000-0  10000-3 0  6740
2 23448 013.1891 034.0782 0008626 134.8583 225.2157 01.00274913 86492
0 RADUGA 32
1 23448U 94087A   13285.81403889 -.00000159  00000-0  10000-3 0  6738
2 23448 013.1931 034.0474 0008519 133.7688 226.3008 01.00278915 86516
0 RADUGA 32
1 23448U 94087A   13288.80553399 -.00000160  00000-0  10000-3 0  6745
2 23448 013.1974 034.0126 0008675 133.1895 226.8636 01.00278607 86547
0 RADUGA 32
1 23448U 94087A   13291.79703399 -.00000159  00000-0  10000-3 0  6753
2 23448 013.2016 033.9777 0008714 133.1507 226.8874 01.00278339 86578
0 RADUGA 32
1 23448U 94087A   13294.78858798 -.00000156  00000-0  10000-3 0  6767
2 23448 013.2058 033.9426 0008768 133.2880 226.7506 01.00278062 86607
